{
  "type": "FeatureCollection",
  "features": [
    {
      "type": "Feature",
      "properties": {
        "name": "Pacoima",
        "boundary_label": "Official Certified Neighborhood Council boundary",
        "storage_crs": "EPSG:4326",
        "area_sq_mi": 7.763214,
        "source_dataset": "City of Los Angeles Neighborhood Councils (Certified)",
        "source_dataset_url": "https://maps.lacity.org/lahub/rest/services/Boundaries/MapServer/18",
        "source_query_url": "https://maps.lacity.org/lahub/rest/services/Boundaries/MapServer/18/query?where=NAME%3D%27PACOIMA%20NC%27&outFields=OBJECTID%2CNAME%2CNC_ID&returnGeometry=true&outSR=4326&f=geojson",
        "source_feature_name": "PACOIMA NC",
        "source_object_id": 64,
        "source_nc_id": 7,
        "retrieved_at": "2026-08-20",
        "license_notes": "City of Los Angeles public data provided as-is for informational use under the Los Angeles Open Data Portal Terms of Use; no dataset-specific license is stated.",
        "license_url": "https://data.lacity.org/terms-of-use"
      },
      "geometry": {
        "type": "Polygon",
        "coordinates": [
          [
            [
              -118.4186444750585,
              34.291768785242176
            ],
            [
              -118.41860083324444,
              34.29172747437549
            ],
            [
              -118.41820736641712,
              34.29135600371198
            ],
            [
              -118.4174899490605,
              34.290687029027495
            ],
            [
              -118.41743231609068,
              34.29063641432296
            ],
            [
              -118.41735341316331,
              34.29056711820447
            ],
            [
              -118.41713502637181,
              34.290360593570384
            ],
            [
              -118.41738179488118,
              34.29017899046001
            ],
            [
              -118.41745291025191,
              34.29012797074325
            ],
            [
              -118.41753301842208,
              34.29007049652446
            ],
            [
              -118.41834432360535,
              34.28947925760805
            ],
            [
              -118.41868233824984,
              34.2892329262257
            ],
            [
              -118.41909971566614,
              34.28892946108613
            ],
            [
              -118.41931501254123,
              34.28877252440512
            ],
            [
              -118.41962207981723,
              34.28854869082312
            ],
            [
              -118.41987655811295,
              34.2883632072047
            ],
            [
              -118.4198841486786,
              34.288357674294225
            ],
            [
              -118.42004073338899,
              34.288243542031076
            ],
            [
              -118.42066197819453,
              34.287790676252705
            ],
            [
              -118.42066695957276,
              34.28778705910864
            ],
            [
              -118.42068478535968,
              34.28777406552785
            ],
            [
              -118.4207600979369,
              34.28771895071438
            ],
            [
              -118.42082103137162,
              34.28767452036167
            ],
            [
              -118.420840163457,
              34.28766060445289
            ],
            [
              -118.42195893224469,
              34.28684391193223
            ],
            [
              -118.42196506810559,
              34.28683943875822
            ],
            [
              -118.42238165815007,
              34.28653555384966
            ],
            [
              -118.42238399962935,
              34.28653378678237
            ],
            [
              -118.42243139818123,
              34.28649927285682
            ],
            [
              -118.42243420190628,
              34.286497202160895
            ],
            [
              -118.42280544491452,
              34.286228179561704
            ],
            [
              -118.42317380763959,
              34.2859596599222
            ],
            [
              -118.42317756797542,
              34.28595689889414
            ],
            [
              -118.4232520536728,
              34.28590236599714
            ],
            [
              -118.4233263198648,
              34.28584761745215
            ],
            [
              -118.42344697792903,
              34.28576049920705
            ],
            [
              -118.42345116667536,
              34.28575740670953
            ],
            [
              -118.42389073693569,
              34.28543700387271
            ],
            [
              -118.42389894902529,
              34.285430984406915
            ],
            [
              -118.42404733343315,
              34.285322213628234
            ],
            [
              -118.42414694397893,
              34.28524897543411
            ],
            [
              -118.42447100762858,
              34.28501391158086
            ],
            [
              -118.42459528697337,
              34.28492323464065
            ],
            [
              -118.42471969869534,
              34.28483258505513
            ],
            [
              -118.42472114999282,
              34.28483156393167
            ],
            [
              -118.42484417466795,
              34.28474202166291
            ],
            [
              -118.42496863948631,
              34.284651453673064
            ],
            [
              -118.42509300456055,
              34.28456076059049
            ],
            [
              -118.42521729637971,
              34.28447002526403
            ],
            [
              -118.425341565056,
              34.28437927726862
            ],
            [
              -118.42546584878231,
              34.28428855163007
            ],
            [
              -118.42561577577278,
              34.28417914512057
            ],
            [
              -118.425690284139,
              34.284124781021596
            ],
            [
              -118.42576496010916,
              34.28407029007169
            ],
            [
              -118.42591414848808,
              34.283961451952344
            ],
            [
              -118.42603742488352,
              34.2838715090954
            ],
            [
              -118.42616209035813,
              34.28378054338684
            ],
            [
              -118.42628681776296,
              34.283689635029226
            ],
            [
              -118.42641178949219,
              34.28359876985711
            ],
            [
              -118.42653572690573,
              34.28350682905679
            ],
            [
              -118.42665970688147,
              34.283416892999426
            ],
            [
              -118.42666125762659,
              34.28341578856061
            ],
            [
              -118.4267843467145,
              34.28332648749165
            ],
            [
              -118.42678622744936,
              34.28332513486681
            ],
            [
              -118.42690905295304,
              34.28323616456186
            ],
            [
              -118.42691129611583,
              34.283234535688194
            ],
            [
              -118.4272323698099,
              34.28300040891428
            ],
            [
              -118.427307126902,
              34.282945608392716
            ],
            [
              -118.42732204753091,
              34.28293474629847
            ],
            [
              -118.42738144420564,
              34.28289147921955
            ],
            [
              -118.42778058051951,
              34.28260011175558
            ],
            [
              -118.42780446464927,
              34.28258269530742
            ],
            [
              -118.4278163650513,
              34.28257401743028
            ],
            [
              -118.4278612872533,
              34.28254121581965
            ],
            [
              -118.42799155881983,
              34.28244608853935
            ],
            [
              -118.42805010391012,
              34.28240336325917
            ],
            [
              -118.42807173395857,
              34.28238757749449
            ],
            [
              -118.42813393626587,
              34.28234218241184
            ],
            [
              -118.42830111564905,
              34.2822201341903
            ],
            [
              -118.42850671646629,
              34.28207003094575
            ],
            [
              -118.42855434001383,
              34.282035266784746
            ],
            [
              -118.42894749877087,
              34.28174828635083
            ],
            [
              -118.42916257468832,
              34.28159168529096
            ],
            [
              -118.43015722724594,
              34.28086744019219
            ],
            [
              -118.43020140367092,
              34.28083527413645
            ],
            [
              -118.43020694467243,
              34.28083124260519
            ],
            [
              -118.4306166958389,
              34.28045227690073
            ],
            [
              -118.4306165987711,
              34.28045219791052
            ],
            [
              -118.43062111455401,
              34.28044797076602
            ],
            [
              -118.43226152338924,
              34.278912667905004
            ],
            [
              -118.43226202705048,
              34.27891219730703
            ],
            [
              -118.43243403532966,
              34.27875120486697
            ],
            [
              -118.43251307479125,
              34.27867895456076
            ],
            [
              -118.43254556472453,
              34.278650206546025
            ],
            [
              -118.43279744421113,
              34.27843691849165
            ],
            [
              -118.43279893547782,
              34.2784356870692
            ],
            [
              -118.433064103915,
              34.27823251309825
            ],
            [
              -118.43371920240196,
              34.27775461945102
            ],
            [
              -118.4337247090719,
              34.277750531984786
            ],
            [
              -118.43372688585251,
              34.27774893116912
            ],
            [
              -118.433809851402,
              34.27768732844117
            ],
            [
              -118.4338122587784,
              34.27768558796086
            ],
            [
              -118.43384885476424,
              34.27765841609791
            ],
            [
              -118.43390859053162,
              34.27761406092281
            ],
            [
              -118.43393473681327,
              34.27759464725518
            ],
            [
              -118.43405659899963,
              34.277504162106084
            ],
            [
              -118.43483405569548,
              34.27655101937457
            ],
            [
              -118.43524764770652,
              34.27598118722342
            ],
            [
              -118.43528737181867,
              34.275929761301775
            ],
            [
              -118.43544001224792,
              34.2757321505546
            ],
            [
              -118.43565186215933,
              34.27541744481116
            ],
            [
              -118.43587336408115,
              34.27504704925695
            ],
            [
              -118.43609637172477,
              34.27464575393637
            ],
            [
              -118.43660126996492,
              34.27371753937358
            ],
            [
              -118.43704208513701,
              34.27288436610217
            ],
            [
              -118.43740430796858,
              34.272206748954765
            ],
            [
              -118.43788786002135,
              34.27131811863504
            ],
            [
              -118.43811247366965,
              34.2709116478761
            ],
            [
              -118.43842224404396,
              34.27033516900035
            ],
            [
              -118.43884331348332,
              34.269524065248866
            ],
            [
              -118.4394906428125,
              34.26831744965891
            ],
            [
              -118.43977108143339,
              34.26783313525825
            ],
            [
              -118.44026850391154,
              34.267066721431
            ],
            [
              -118.44095856776238,
              34.26612135174481
            ],
            [
              -118.44132022464872,
              34.26566387326582
            ],
            [
              -118.4415487870616,
              34.26538687775224
            ],
            [
              -118.44197307347193,
              34.26488589408511
            ],
            [
              -118.44206750745484,
              34.26476625855706
            ],
            [
              -118.44158834755002,
              34.26400700092699
            ],
            [
              -118.44111011996688,
              34.26321006090461
            ],
            [
              -118.44067439722258,
              34.26254029047467
            ],
            [
              -118.4404494464731,
              34.262182280299626
            ],
            [
              -118.44008417102756,
              34.26165115338246
            ],
            [
              -118.43970538655725,
              34.26120110026428
            ],
            [
              -118.43935479291788,
              34.26080881886843
            ],
            [
              -118.43904730671659,
              34.26048685975825
            ],
            [
              -118.43704298113015,
              34.25860633904036
            ],
            [
              -118.43501160043847,
              34.256692185815346
            ],
            [
              -118.43187349729007,
              34.253705466121914
            ],
            [
              -118.42971702892883,
              34.251672233326474
            ],
            [
              -118.42857798679852,
              34.250586611328835
            ],
            [
              -118.42693198050833,
              34.24902818883412
            ],
            [
              -118.42520457742734,
              34.247393775259404
            ],
            [
              -118.42366842797617,
              34.24594071656249
            ],
            [
              -118.42205755454528,
              34.2444229793229
            ],
            [
              -118.42010596362152,
              34.24258352689021
            ],
            [
              -118.41835893631185,
              34.2409415287607
            ],
            [
              -118.41745466041714,
              34.2400838729567
            ],
            [
              -118.41633257905353,
              34.239005066926396
            ],
            [
              -118.41611985251818,
              34.238798476212004
            ],
            [
              -118.41602912696999,
              34.23886460311016
            ],
            [
              -118.41578847228377,
              34.23903990120538
            ],
            [
              -118.41488351090213,
              34.23969769663105
            ],
            [
              -118.41431643356353,
              34.240109427098794
            ],
            [
              -118.41363563843181,
              34.24060466179912
            ],
            [
              -118.41319879978761,
              34.24092351882546
            ],
            [
              -118.41157674022935,
              34.24210893812884
            ],
            [
              -118.40993318912543,
              34.24331052601265
            ],
            [
              -118.40787580321746,
              34.244814734674556
            ],
            [
              -118.40665091062827,
              34.24570985688217
            ],
            [
              -118.4031986087636,
              34.24823264870055
            ],
            [
              -118.40299251956856,
              34.248383450067585
            ],
            [
              -118.40278805299089,
              34.24853251563052
            ],
            [
              -118.39341102072089,
              34.25538876087521
            ],
            [
              -118.39108842313249,
              34.25708712079947
            ],
            [
              -118.3907989658237,
              34.25729877368515
            ],
            [
              -118.39055690736294,
              34.25747677544616
            ],
            [
              -118.3905503519786,
              34.25747548756262
            ],
            [
              -118.39047141577065,
              34.25745999684614
            ],
            [
              -118.3899521547778,
              34.25735826697409
            ],
            [
              -118.38956540692243,
              34.25728249471701
            ],
            [
              -118.38955335583952,
              34.25728013360454
            ],
            [
              -118.3882265041573,
              34.257020162657795
            ],
            [
              -118.38770128541118,
              34.256917206246456
            ],
            [
              -118.3865012641943,
              34.25668211451459
            ],
            [
              -118.38640894743479,
              34.25666402327091
            ],
            [
              -118.38493201847055,
              34.25637459664521
            ],
            [
              -118.38486202974565,
              34.25642571003979
            ],
            [
              -118.38486076592415,
              34.256424532142596
            ],
            [
              -118.38481828765117,
              34.256384437890404
            ],
            [
              -118.3847742126794,
              34.256342782728474
            ],
            [
              -118.38324246580983,
              34.25489541237161
            ],
            [
              -118.38266729979394,
              34.25435191016548
            ],
            [
              -118.38263547649154,
              34.25451353193979
            ],
            [
              -118.38214786786389,
              34.25515362638745
            ],
            [
              -118.38181943587645,
              34.25558476260471
            ],
            [
              -118.38173537046069,
              34.25574937882147
            ],
            [
              -118.37956947541596,
              34.2553301274681
            ],
            [
              -118.37841382933601,
              34.255106413929404
            ],
            [
              -118.37836878470075,
              34.25509765024865
            ],
            [
              -118.37832055605743,
              34.255088267229034
            ],
            [
              -118.37815877346996,
              34.255087759394186
            ],
            [
              -118.37809449171478,
              34.255194025998655
            ],
            [
              -118.37805337623135,
              34.25525187260276
            ],
            [
              -118.37801063463547,
              34.255313160027505
            ],
            [
              -118.37794317790919,
              34.25539786899753
            ],
            [
              -118.37780648799043,
              34.25554598814954
            ],
            [
              -118.3777735413682,
              34.25557698934216
            ],
            [
              -118.3776911481313,
              34.25564766007015
            ],
            [
              -118.3775081149498,
              34.25579421144386
            ],
            [
              -118.37737779454592,
              34.255879123328306
            ],
            [
              -118.37723588090309,
              34.255964419192175
            ],
            [
              -118.37660888305228,
              34.256281139391675
            ],
            [
              -118.37657205898567,
              34.25629974085989
            ],
            [
              -118.37554862106245,
              34.25681670414981
            ],
            [
              -118.37502058711621,
              34.25708209196816
            ],
            [
              -118.37396698232536,
              34.25761160262087
            ],
            [
              -118.37388113574757,
              34.25765858451261
            ],
            [
              -118.37378212316996,
              34.257717966162
            ],
            [
              -118.37358743627874,
              34.25784326407102
            ],
            [
              -118.37355115441026,
              34.257870505974836
            ],
            [
              -118.37331684881943,
              34.258022694117834
            ],
            [
              -118.37319976469429,
              34.258105839626445
            ],
            [
              -118.37311731336733,
              34.25817100982749
            ],
            [
              -118.37298542454116,
              34.25828167508608
            ],
            [
              -118.37269530612456,
              34.25853126829988
            ],
            [
              -118.3725816022097,
              34.25863809878914
            ],
            [
              -118.37250252263644,
              34.25871939569691
            ],
            [
              -118.37235104827309,
              34.258883706056515
            ],
            [
              -118.37215678350697,
              34.25910962986906
            ],
            [
              -118.3720843634027,
              34.25920020177254
            ],
            [
              -118.37118821357664,
              34.26037371616251
            ],
            [
              -118.3712579852876,
              34.260703726956436
            ],
            [
              -118.37130105032534,
              34.26097723918593
            ],
            [
              -118.37131136900702,
              34.26104268974664
            ],
            [
              -118.37150334165524,
              34.26226199249067
            ],
            [
              -118.37150446800105,
              34.26226914272709
            ],
            [
              -118.37161866850371,
              34.26299446516802
            ],
            [
              -118.3716875859903,
              34.26343217138528
            ],
            [
              -118.37173461407272,
              34.26373082325911
            ],
            [
              -118.37175938482022,
              34.2638881275348
            ],
            [
              -118.37195002101711,
              34.26509870137625
            ],
            [
              -118.37200874450876,
              34.26547160201855
            ],
            [
              -118.3720276834301,
              34.265591983697234
            ],
            [
              -118.37203190729053,
              34.26561873553488
            ],
            [
              -118.3720449170873,
              34.265701050018734
            ],
            [
              -118.37201875412954,
              34.26570473024887
            ],
            [
              -118.3720233860871,
              34.265734117827215
            ],
            [
              -118.37203054174289,
              34.265780095839744
            ],
            [
              -118.37240676287328,
              34.268182517632575
            ],
            [
              -118.37269040698267,
              34.269993680951764
            ],
            [
              -118.3726936597965,
              34.270014449552335
            ],
            [
              -118.37272882389546,
              34.27023898076152
            ],
            [
              -118.3727410225111,
              34.270317092899184
            ],
            [
              -118.37275642314697,
              34.270415530234885
            ],
            [
              -118.37275761643733,
              34.2704232752673
            ],
            [
              -118.37277182393991,
              34.27051399461416
            ],
            [
              -118.37310663492093,
              34.27265500501321
            ],
            [
              -118.37318643426404,
              34.27316528115713
            ],
            [
              -118.37321311510325,
              34.27333588501587
            ],
            [
              -118.3732732239324,
              34.273720224858955
            ],
            [
              -118.37329295628301,
              34.27372121882409
            ],
            [
              -118.37340221471474,
              34.27452820331892
            ],
            [
              -118.37343869737379,
              34.2745306096997
            ],
            [
              -118.37358768807586,
              34.274535322214675
            ],
            [
              -118.37364725485419,
              34.27453512849766
            ],
            [
              -118.37378304662921,
              34.2745456991164
            ],
            [
              -118.37381119379336,
              34.27454871260719
            ],
            [
              -118.37388570265138,
              34.274556016699634
            ],
            [
              -118.37407118528424,
              34.27458601401888
            ],
            [
              -118.37417059200155,
              34.27460769084175
            ],
            [
              -118.37432961941573,
              34.27463777762797
            ],
            [
              -118.37441411044693,
              34.27465709686584
            ],
            [
              -118.37454666804284,
              34.274692742048465
            ],
            [
              -118.37474722421926,
              34.274759124598454
            ],
            [
              -118.37495772327144,
              34.27482339437998
            ],
            [
              -118.37500083097814,
              34.27483940199116
            ],
            [
              -118.37502057928344,
              34.27484823178138
            ],
            [
              -118.37510528128723,
              34.27488613415783
            ],
            [
              -118.37520648058478,
              34.27493801416533
            ],
            [
              -118.37529110500176,
              34.274984463218715
            ],
            [
              -118.37546537409307,
              34.275095572846865
            ],
            [
              -118.37564798812323,
              34.2752162558974
            ],
            [
              -118.37574755339246,
              34.27527674298532
            ],
            [
              -118.37599156856754,
              34.27543502196718
            ],
            [
              -118.37620067447048,
              34.27555872140556
            ],
            [
              -118.3763135249201,
              34.275628439958275
            ],
            [
              -118.37635833516234,
              34.275653376023705
            ],
            [
              -118.37647939101244,
              34.275708974296066
            ],
            [
              -118.3766053938953,
              34.27575906309786
            ],
            [
              -118.3767131514732,
              34.275796523013376
            ],
            [
              -118.37711588910102,
              34.27591995818743
            ],
            [
              -118.37723850312837,
              34.27594671790865
            ],
            [
              -118.37752340746154,
              34.275998027126704
            ],
            [
              -118.37758302221368,
              34.276006764652806
            ],
            [
              -118.377698921223,
              34.27601877858058
            ],
            [
              -118.37776679511792,
              34.27602199989597
            ],
            [
              -118.37790584699921,
              34.276023982116115
            ],
            [
              -118.37825010631252,
              34.27602462733328
            ],
            [
              -118.37832786884682,
              34.27602196917568
            ],
            [
              -118.37844538612063,
              34.27601817429831
            ],
            [
              -118.37849998457305,
              34.27601491137172
            ],
            [
              -118.37861081403835,
              34.276001510631126
            ],
            [
              -118.37877123766498,
              34.275973864546884
            ],
            [
              -118.37888035063555,
              34.27595222077033
            ],
            [
              -118.37899276838318,
              34.27591960206324
            ],
            [
              -118.37916132595805,
              34.27586686728422
            ],
            [
              -118.379371174975,
              34.275788223467494
            ],
            [
              -118.37952323024021,
              34.27573932092966
            ],
            [
              -118.37958765850355,
              34.275715418475656
            ],
            [
              -118.37965867827253,
              34.275684959179365
            ],
            [
              -118.3798023765676,
              34.27561581775191
            ],
            [
              -118.37985850245688,
              34.275585063371565
            ],
            [
              -118.38003180731074,
              34.27548355287401
            ],
            [
              -118.38016547495488,
              34.275398271631644
            ],
            [
              -118.38033208553507,
              34.27527616177259
            ],
            [
              -118.38063395160458,
              34.27505436197958
            ],
            [
              -118.38086159326856,
              34.274886696895706
            ],
            [
              -118.38133665242393,
              34.27453793156148
            ],
            [
              -118.38149165366005,
              34.27441345586334
            ],
            [
              -118.38171777219706,
              34.274277759743384
            ],
            [
              -118.38179538702688,
              34.27423560169168
            ],
            [
              -118.38197867899906,
              34.274148824970545
            ],
            [
              -118.3822347333418,
              34.27404323762359
            ],
            [
              -118.38243631120069,
              34.27396875984455
            ],
            [
              -118.382603287691,
              34.273924956771346
            ],
            [
              -118.38280170587406,
              34.27388481708317
            ],
            [
              -118.38310597653621,
              34.27383164044588
            ],
            [
              -118.3879506490846,
              34.27319967635993
            ],
            [
              -118.39050456204782,
              34.27288917579447
            ],
            [
              -118.39057563941489,
              34.27287006114032
            ],
            [
              -118.39086194324751,
              34.272869134556615
            ],
            [
              -118.39101421774335,
              34.27286864921424
            ],
            [
              -118.39111518764254,
              34.27287554531766
            ],
            [
              -118.39131885947721,
              34.27289857152797
            ],
            [
              -118.39149433788612,
              34.272903167379745
            ],
            [
              -118.39161351924365,
              34.272909991561505
            ],
            [
              -118.39171948448771,
              34.2729203112703
            ],
            [
              -118.39189832413372,
              34.27294342495461
            ],
            [
              -118.39213352702588,
              34.272980445072236
            ],
            [
              -118.39222466538888,
              34.27300179578346
            ],
            [
              -118.39240693214744,
              34.273049968461606
            ],
            [
              -118.39268525255845,
              34.273112278323254
            ],
            [
              -118.39286590344919,
              34.27316012468837
            ],
            [
              -118.3929918648084,
              34.27320126145945
            ],
            [
              -118.39320090400292,
              34.273305001541374
            ],
            [
              -118.39332525396983,
              34.27335853933536
            ],
            [
              -118.39376640669195,
              34.273548421581694
            ],
            [
              -118.39383109665273,
              34.273582564262064
            ],
            [
              -118.39404349225411,
              34.273693853170236
            ],
            [
              -118.39422937402068,
              34.2738048773381
            ],
            [
              -118.39435888418669,
              34.27389273321826
            ],
            [
              -118.39478911721285,
              34.27422656330429
            ],
            [
              -118.395535482282,
              34.274909733012976
            ],
            [
              -118.3956169191471,
              34.27498467860459
            ],
            [
              -118.39712981757205,
              34.276412771805646
            ],
            [
              -118.39866111576399,
              34.27786823205665
            ],
            [
              -118.40024555282159,
              34.279352701843216
            ],
            [
              -118.40094721525428,
              34.280014678335384
            ],
            [
              -118.40128612483815,
              34.28033703178593
            ],
            [
              -118.40184013232872,
              34.28086392639628
            ],
            [
              -118.4049845685859,
              34.28385242677185
            ],
            [
              -118.40777654352415,
              34.28647415112864
            ],
            [
              -118.40795779521744,
              34.28664115901765
            ],
            [
              -118.40815401729253,
              34.2868259936696
            ],
            [
              -118.40912029019566,
              34.287754271941886
            ],
            [
              -118.41129564582134,
              34.289822917069976
            ],
            [
              -118.41444395907254,
              34.29278439457344
            ],
            [
              -118.41565552659475,
              34.29392401685281
            ],
            [
              -118.41589466041628,
              34.29377897874896
            ],
            [
              -118.4168346223926,
              34.293091877827194
            ],
            [
              -118.41692157492683,
              34.29302831763084
            ],
            [
              -118.41699609398174,
              34.29297381736132
            ],
            [
              -118.41707671719767,
              34.2929148992253
            ],
            [
              -118.41711050256511,
              34.29289019523566
            ],
            [
              -118.41716367250892,
              34.292851316305565
            ],
            [
              -118.41740576920361,
              34.2926743424428
            ],
            [
              -118.4174705841238,
              34.29262695870482
            ],
            [
              -118.41809797922261,
              34.29216829811747
            ],
            [
              -118.41855916048395,
              34.29183116271587
            ],
            [
              -118.4186444750585,
              34.291768785242176
            ]
          ]
        ]
      }
    }
  ]
}
